{
    "links": {
        "self": "http://www.neowsapp.com/rest/v1/neo/3753660?api_key=iIulBulltgU6a56xZRHN4H3l9WmuAYTsLGpBGhQ2"
    },
    "id": "3753660",
    "neo_reference_id": "3753660",
    "name": "(2016 LP)",
    "designation": "2016 LP",
    "nasa_jpl_url": "http://ssd.jpl.nasa.gov/sbdb.cgi?sstr=3753660",
    "absolute_magnitude_h": 22.4,
    "estimated_diameter": {
        "kilometers": {
            "estimated_diameter_min": 0.0880146521,
            "estimated_diameter_max": 0.1968067451
        },
        "meters": {
            "estimated_diameter_min": 88.0146520901,
            "estimated_diameter_max": 196.8067450894
        },
        "miles": {
            "estimated_diameter_min": 0.0546897524,
            "estimated_diameter_max": 0.122290004
        },
        "feet": {
            "estimated_diameter_min": 288.7619911632,
            "estimated_diameter_max": 645.6914415591
        }
    },
    "is_potentially_hazardous_asteroid": false,
    "close_approach_data": [
        {
            "close_approach_date": "2016-06-11",
            "close_approach_date_full": "2016-Jun-11 15:47",
            "epoch_date_close_approach": 1465660020000,
            "relative_velocity": {
                "kilometers_per_second": "22.7185867544",
                "kilometers_per_hour": "81786.9123159134",
                "miles_per_hour": "50819.206710963"
            },
            "miss_distance": {
                "astronomical": "0.142956685",
                "lunar": "55.610150465",
                "kilometers": "21386015.57826095",
                "miles": "13288653.87726311"
            },
            "orbiting_body": "Earth"
        }
    ],
    "orbital_data": {
        "orbit_id": "11",
        "orbit_determination_date": "2018-02-10 07:07:55",
        "first_observation_date": "2016-06-02",
        "last_observation_date": "2016-06-18",
        "data_arc_in_days": 16,
        "observations_used": 62,
        "orbit_uncertainty": "8",
        "minimum_orbit_intersection": ".101706",
        "jupiter_tisserand_invariant": "4.552",
        "epoch_osculation": "2457543.5",
        "eccentricity": ".1878058298598785",
        "semi_major_axis": "1.355543741177284",
        "inclination": "44.63169126860979",
        "ascending_node_longitude": "77.81506670876375",
        "orbital_period": "576.4594075227209",
        "perihelion_distance": "1.10096472395412",
        "perihelion_argument": "204.9175919615621",
        "aphelion_distance": "1.610122758400448",
        "perihelion_time": "2457581.006237458283",
        "mean_anomaly": "336.5772831377556",
        "mean_motion": ".62450190820385",
        "equinox": "J2000",
        "orbit_class": {
            "orbit_class_type": "AMO",
            "orbit_class_description": "Near-Earth asteroid orbits similar to that of 1221 Amor",
            "orbit_class_range": "1.017 AU < q (perihelion) < 1.3 AU"
        }
    },
    "is_sentry_object": false
}